      2.10          N: GNSS NAV DATA                        RINEX VERSION / TYPE
fic2rin                                 08/20/2019 00:18:08 PGM / RUN BY / DATE
                                                            END OF HEADER
29 19  8 19 16  0  0.0 1.207725144923e-04-1.011812855722e-11 0.000000000000e+00
    7.000000000000e+01 4.131250000000e+01 3.891233514066e-09-1.726155169314e+00
    2.281740307808e-06 1.219617435709e-03 1.141056418419e-05 5.153712675095e+03
    1.440000000000e+05 0.000000000000e+00 8.140075979295e-01 1.117587089539e-08
    9.857705066012e-01 1.760937500000e+02 1.936080866431e+00-7.673533919203e-09
    2.314382117591e-10 1.000000000000e+00 2.067000000000e+03 0.000000000000e+00
    2.400000000000e+00 0.000000000000e+00-9.778887033463e-09 7.000000000000e+01
    1.368000000000e+05 4.000000000000e+00
18 19  8 19 16  0  0.0 7.909489795566e-05 2.955857780762e-12 0.000000000000e+00
    1.040000000000e+02 3.768750000000e+01 4.951991984629e-09 1.803793454781e+00
    1.626089215279e-06 1.569436409045e-02 4.760921001434e-06 5.153677637100e+03
    1.440000000000e+05 1.117587089539e-08 1.744805180448e+00-3.930181264877e-07
    9.549203570201e-01 2.824687500000e+02 1.422698717661e+00-8.277130489994e-09
    2.692969315838e-10 1.000000000000e+00 2.067000000000e+03 0.000000000000e+00
    3.400000000000e+00 0.000000000000e+00-5.587935447693e-09 1.040000000000e+02
    1.368000000000e+05 4.000000000000e+00
28 19  8 19 16  0  0.0 7.643899880350e-04-7.958078640513e-13 0.000000000000e+00
    7.900000000000e+01-3.359375000000e+01 4.142315401206e-09-1.217317838883e+00
   -1.445412635803e-06 1.902638690080e-02 8.076429367065e-06 5.153704711914e+03
    1.440000000000e+05-3.520399332047e-07-2.075003530283e-01 2.961605787277e-07
    9.813343040785e-01 2.401562500000e+02-1.461119845735e+00-8.074264896971e-09
   -2.550106222160e-10 1.000000000000e+00 2.067000000000e+03 0.000000000000e+00
    2.400000000000e+00 0.000000000000e+00-1.117587089539e-08 7.900000000000e+01
    1.368000000000e+05 4.000000000000e+00
18 19  8 19 15 59 44.0 7.910141721368e-05 2.955857780762e-12 0.000000000000e+00
    8.000000000000e+00 3.768750000000e+01 4.951634826895e-09 1.801459209527e+00
    1.626089215279e-06 1.569436385762e-02 4.760921001434e-06 5.153677642822e+03
    1.439840000000e+05 1.117587089539e-08 1.744805293093e+00-3.930181264877e-07
    9.549203628718e-01 2.824687500000e+02 1.422699219442e+00-8.277130489994e-09
    2.689397738497e-10 1.000000000000e+00 2.067000000000e+03 0.000000000000e+00
    2.400000000000e+00 0.000000000000e+00-5.587935447693e-09 8.000000000000e+00
    1.369500000000e+05 4.000000000000e+00
 4 19  8 19 16  0  0.0 1.142225228250e-04 4.695266397903e-11 0.000000000000e+00
    4.000000000000e+00 1.712500000000e+01 4.380539609915e-09-1.912695730335e+00
    6.370246410370e-07 1.465544023085e-02 1.064501702785e-05 5.153678873062e+03
    1.440000000000e+05 1.396983861923e-07 6.432414426394e-01-1.545995473862e-07
    9.589796079785e-01 1.702812500000e+02 6.757573570578e-01-7.801753545779e-09
    2.460816788611e-10 1.000000000000e+00 2.067000000000e+03 0.000000000000e+00
    2.400000000000e+00 6.300000000000e+01-5.587935447693e-09 4.000000000000e+00
    1.387200000000e+05 4.000000000000e+00
 1 19  8 19 15 59 44.0-1.015830785036e-04-1.159605744760e-11 0.000000000000e+00
    2.200000000000e+01 3.440625000000e+01 4.523402703593e-09 2.062882120235e+00
    1.696869730949e-06 9.100490133278e-03 4.772096872330e-06 5.153646636963e+03
    1.439840000000e+05-2.589076757431e-07 1.801761458643e+00-1.098960638046e-07
    9.763808854058e-01 2.965000000000e+02 7.547656550648e-01-8.123195506556e-09
    2.592965150264e-10 1.000000000000e+00 2.067000000000e+03 0.000000000000e+00
    2.400000000000e+00 0.000000000000e+00 5.587935447693e-09 2.200000000000e+01
    1.426800000000e+05 4.000000000000e+00
 1 19  8 19 17 59 44.0-1.016664318740e-04-1.159605744760e-11 0.000000000000e+00
    2.300000000000e+01 3.400000000000e+01 4.483758195098e-09 3.113124314581e+00
    1.637265086174e-06 9.100964176469e-03 4.993751645088e-06 5.153645483017e+03
    1.511840000000e+05-8.195638656616e-08 1.801703480273e+00-1.955777406693e-07
    9.763832919061e-01 2.918750000000e+02 7.547212262427e-01-8.022477025512e-09
    2.828689254833e-10 1.000000000000e+00 2.067000000000e+03 0.000000000000e+00
    2.400000000000e+00 0.000000000000e+00 5.587935447693e-09 2.300000000000e+01
    1.440000000000e+05 4.000000000000e+00
 3 19  8 19 18  0  0.0-2.915039658546e-06-3.183231456205e-12 0.000000000000e+00
    1.400000000000e+01-6.943750000000e+01 4.653765276575e-09 2.053420718038e+00
   -3.712251782417e-06 2.444010460749e-03 6.563961505890e-06 5.153730087280e+03
    1.512000000000e+05-5.960464477539e-08 2.843858139752e+00 2.607703208923e-08
    9.638681901219e-01 2.541875000000e+02 6.993826165275e-01-8.184983794572e-09
   -3.450143712334e-10 1.000000000000e+00 2.067000000000e+03 0.000000000000e+00
    2.400000000000e+00 0.000000000000e+00 1.862645149231e-09 1.400000000000e+01
    1.440000000000e+05 4.000000000000e+00
 2 19  8 19 18  0  0.0-2.864552661777e-04-8.299139153678e-12 0.000000000000e+00
    8.900000000000e+01 4.690625000000e+01 4.939134306198e-09-2.909543770085e+00
    2.443790435791e-06 1.897514285520e-02 4.209578037262e-06 5.153767145157e+03
    1.512000000000e+05 3.632158041000e-07 1.731206217288e+00 2.235174179077e-08
    9.554664775054e-01 2.924062500000e+02-1.721615529706e+00-8.121052560151e-09
    3.382283742837e-10 1.000000000000e+00 2.067000000000e+03 0.000000000000e+00
    2.400000000000e+00 0.000000000000e+00-2.048909664154e-08 8.900000000000e+01
    1.440000000000e+05 4.000000000000e+00
 5 19  8 19 18  0  0.0-7.362104952335e-07-3.410605131648e-13 0.000000000000e+00
    1.110000000000e+02-6.962500000000e+01 5.005922802492e-09-2.437348837820e-01
   -3.593042492867e-06 5.843974999152e-03 6.088986992836e-06 5.153748725891e+03
    1.512000000000e+05-4.842877388000e-08 2.815865143789e+00 4.097819328308e-08
    9.507325214142e-01 2.539375000000e+02 7.620736667185e-01-8.446780413737e-09
   -3.950164540209e-10 1.000000000000e+00 2.067000000000e+03 0.000000000000e+00
    2.400000000000e+00 0.000000000000e+00-1.117587089539e-08 1.110000000000e+02
    1.440000000000e+05 4.000000000000e+00
 6 19  8 19 18  0  0.0-3.001093864441e-05-1.193711796077e-11 0.000000000000e+00
    9.800000000000e+01 3.203125000000e+01 4.556261215139e-09-2.880225964287e+00
    1.791864633560e-06 1.368316239677e-03 4.831701517105e-06 5.153638469696e+03
    1.512000000000e+05-3.539025783539e-08 1.793422781703e+00 9.126961231232e-08
    9.760106413208e-01 2.949062500000e+02-1.105039929600e+00-8.173911904812e-09
    2.985838657879e-10 1.000000000000e+00 2.067000000000e+03 0.000000000000e+00
    2.400000000000e+00 0.000000000000e+00 4.190951585770e-09 9.800000000000e+01
    1.440000000000e+05 4.000000000000e+00
18 19  8 19 18  0  0.0 7.912283763289e-05 2.955857780762e-12 0.000000000000e+00
    9.000000000000e+00 4.390625000000e+01 4.918776315348e-09 2.853939942100e+00
    2.134591341019e-06 1.569371216465e-02 4.639849066734e-06 5.153679195404e+03
    1.512000000000e+05 2.030283212662e-07 1.744746385770e+00-2.421438694000e-07
    9.549226201544e-01 2.829687500000e+02 1.422733126957e+00-8.173197589343e-09
    2.732256666600e-10 1.000000000000e+00 2.067000000000e+03 0.000000000000e+00
    2.400000000000e+00 0.000000000000e+00-5.587935447693e-09 9.000000000000e+00
    1.440000000000e+05 4.000000000000e+00
16 19  8 19 18  0  0.0-6.641726940870e-05-3.410605131648e-12 0.000000000000e+00
    4.000000000000e+01-4.075000000000e+01 4.079098482253e-09-3.703601529298e-02
   -1.978129148483e-06 1.075429329649e-02 7.625669240952e-06 5.153621221542e+03
    1.512000000000e+05 1.192092895508e-07-2.114718903445e-01 1.396983861923e-07
    9.823666926816e-01 2.441250000000e+02 5.816620975440e-01-8.071407635097e-09
   -3.196561721055e-10 1.000000000000e+00 2.067000000000e+03 0.000000000000e+00
    2.400000000000e+00 0.000000000000e+00-1.071020960808e-08 4.000000000000e+01
    1.440000000000e+05 4.000000000000e+00
13 19  8 19 18  0  0.0-4.885578528047e-05 1.932676241267e-12 0.000000000000e+00
    4.000000000000e+01 2.209375000000e+01 4.135172246522e-09-1.890303988760e+00
    1.106411218643e-06 3.648397047073e-03 1.085549592972e-05 5.153671356201e+03
    1.512000000000e+05 1.098960638046e-07-2.269333120662e+00-2.048909664154e-08
    9.679444738354e-01 1.766250000000e+02 1.224480477441e+00-7.734965049485e-09
    5.321650239522e-11 1.000000000000e+00 2.067000000000e+03 0.000000000000e+00
    2.400000000000e+00 0.000000000000e+00-1.117587089539e-08 4.000000000000e+01
    1.440000000000e+05 4.000000000000e+00
12 19  8 19 18  0  0.0 2.124933525920e-04-3.751665644813e-12 0.000000000000e+00
    4.000000000000e+01-4.203125000000e+01 4.013381459161e-09 1.791449117961e+00
   -2.251937985420e-06 7.498434628360e-03 7.694587111473e-06 5.153592597961e+03
    1.512000000000e+05-1.229345798492e-07-2.303670499752e-01-1.341104507446e-07
    9.820347053673e-01 2.412500000000e+02 1.105313626943e+00-7.872827934884e-09
   -3.035840740667e-10 1.000000000000e+00 2.067000000000e+03 0.000000000000e+00
    2.400000000000e+00 0.000000000000e+00-1.257285475731e-08 4.000000000000e+01
    1.440000000000e+05 4.000000000000e+00
 7 19  8 19 18  0  0.0-8.853385224938e-05-7.844391802792e-12 0.000000000000e+00
    1.080000000000e+02 4.212500000000e+01 4.789128057835e-09 2.491347808099e+00
    2.002343535423e-06 1.313570409548e-02 5.692243576050e-06 5.153733470917e+03
    1.512000000000e+05-1.136213541031e-07-1.331966916008e+00-2.197921276093e-07
    9.545065984368e-01 2.659375000000e+02-2.437418507830e+00-8.133195923113e-09
    1.971510692762e-10 1.000000000000e+00 2.067000000000e+03 0.000000000000e+00
    3.400000000000e+00 0.000000000000e+00-1.117587089539e-08 1.080000000000e+02
    1.440000000000e+05 4.000000000000e+00
